AKEBONO (EXOS-D)        
1 19822U 89016A   18113.88508906  .00015912 -11063-6  30103-3 0  9990
2 19822  75.0316 290.2657 1851093  77.9803 302.1697 11.81676006945752
HST                     
1 20580U 90037B   18114.21672374  .00000479  00000-0  18404-4 0  9992
2 20580  28.4689 111.8761 0002444 280.3422 173.1231 15.09022816337302
POLAR                   
1 23802U 96013A   18113.35895785 -.00000119  00000-0  00000-0 0  9990
2 23802  78.5844 262.9723 7130117 310.5296   6.1986  1.29843614106207
SWAS                    
1 25560U 98071A   18114.22116098  .00000203  00000-0  27767-4 0  9995
2 25560  69.8994 198.8605 0005037  77.1973 282.9745 14.93573729 51981
ORSTED                  
1 25635U 99008B   18114.15240691  .00000096  00000-0  30699-4 0  9996
2 25635  96.4479 311.9758 0138175 336.4462  23.0447 14.48068710 11235
CXO                     
1 25867U 99040B   18116.39895508  .00000454  00000-0  00000+0 0  9996
2 25867  71.8144 283.9340 6849921 243.6669   0.0663  0.37806224 17239
XMM-NEWTON              
1 25989U 99066A   18115.77708645 -.00000245  00000-0  00000+0 0  9994
2 25989  70.1085 348.9555 8034717  95.9909 359.6581  0.50140739 22455
TERRA                   
1 25994U 99068A   18114.27843471  .00000047  00000-0  20515-4 0  9990
2 25994  98.2058 189.9211 0000788  99.4795 260.6483 14.57096447975973
CLUSTER II-FM7 (SAMBA)  
1 26410U 00041A   18116.76955477  .00000479  00000-0  00000+0 0  9994
2 26410 130.9030 335.6659 4182179 160.4241   0.5750  0.44197864 18883
CLUSTER II-FM6 (SALSA)  
1 26411U 00041B   18116.75637994  .00000397  00000-0  00000+0 0  9994
2 26411 130.0388 336.8927 4973151 168.4900   0.6717  0.44230607 18966
CLUSTER II-FM5 (RUMBA)  
1 26463U 00045A   18116.76026100  .00000454  00000-0  00000+0 0  9991
2 26463 133.6051 335.6171 4668923 166.9494   0.6731  0.44227898 19466
CLUSTER II-FM8 (TANGO)  
1 26464U 00045B   18113.62896518  .00000363  00000-0  00000+0 0  9991
2 26464 130.9023 335.6391 4180699 160.3479 222.2204  0.44218785 54786
ODIN                    
1 26702U 01007A   18113.64291427  .00000365  00000-0  28155-4 0  9993
2 26702  97.5954 132.0753 0012340  76.3125 283.9476 15.07510531938415
TIMED                   
1 26998U 01055B   18114.37689412  .00000131  00000-0  18289-4 0  9997
2 26998  74.0732  55.8538 0001673 298.5810  61.5202 14.88010522887766
RHESSI                  
1 27370U 02004A   18113.92143385  .00002162  00000-0  77283-4 0  9996
2 27370  38.0331 312.3415 0011775  37.9256 322.2342 15.30039719893850
INTEGRAL                
1 27540U 02048A   18115.02349783  .00000616  00000-0  00000+0 0  9996
2 27540  48.8755 171.6902 8485292 267.1228   0.0271  0.37596246 15478
CORIOLIS                
1 27640U 03001A   18114.56175669  .00000003  00000-0  22209-4 0  9995
2 27640  98.7394 125.4904 0015009 130.0417 339.0555 14.18975749792101
SORCE                   
1 27651U 03004A   18114.16558698  .00000132  00000-0  27936-4 0  9998
2 27651  39.9969  28.4419 0024240 259.2664 100.5395 14.88844538827140
MOST                    
1 27843U 03031D   18114.43641096 -.00000004  00000-0  18451-4 0  9997
2 27843  98.7136 123.1088 0009714 190.4486 169.6490 14.20567402768148
SCISAT 1                
1 27858U 03036A   18113.89462118  .00000088  00000-0  17397-4 0  9992
2 27858  73.9318 295.1798 0008696 318.2343  41.8166 14.77195024791651
SWIFT                   
1 28485U 04047A   18114.36316650  .00000875  00000-0  29866-4 0  9992
2 28485  20.5562 118.7103 0011103 209.0232 150.9584 15.04087324735117
FORMOSAT-3 FM6          
1 29047U 06011A   18113.87310508  .00000040  00000-0  32141-4 0  9995
2 29047  71.9783 273.2209 0050879 335.1417  24.7269 14.28632430629120
FORMOSAT-3 FM1          
1 29048U 06011B   18114.21570175  .00000065  00000-0  42025-4 0  9992
2 29048  71.9672 184.3351 0045634 291.2828  68.3438 14.28567751631666
FORMOSAT-3 FM5          
1 29049U 06011C   18114.12034400  .00000076  00000-0  46389-4 0  9998
2 29049  72.0214 351.7415 0035858 324.2666  35.6071 14.28638604627432
FORMOSAT-3 FM3          
1 29050U 06011D   18113.69939767  .00000147  00000-0  41572-4 0  9999
2 29050  72.0167 218.8188 0051400 311.2975  48.3757 14.58652797641846
FORMOSAT-3 FM4          
1 29051U 06011E   18113.85581473  .00000116  00000-0  60997-4 0  9993
2 29051  72.0054 255.7912 0069080 204.4524 155.3332 14.28667009629981
FORMOSAT-3 FM2          
1 29052U 06011F   18113.90947449  .00000065  00000-0  41817-4 0  9992
2 29052  72.0345 327.5575 0041647 287.4914  72.1673 14.28761201627498
CLOUDSAT                
1 29107U 06016A   18113.89432127  .00000110  00000-0  31855-4 0  9990
2 29107  98.2376  59.0192 0008581  16.5308 343.6171 14.61337636637693
CALIPSO                 
1 29108U 06016B   18114.57353232  .00000120  00000-0  36725-4 0  9998
2 29108  98.2177  58.8489 0001402  82.4180 277.7177 14.57118146637707
HINODE (SOLAR-B)        
1 29479U 06041A   18113.96717227  .00000095  00000-0  26821-4 0  9994
2 29479  98.1701 121.2441 0016204 324.3638  35.6482 14.64909651618880
SJ-6C                   
1 29505U 06046A   18114.57136437  .00000375  00000-0  40183-4 0  9993
2 29505  97.8281 120.5070 0004250 118.9309 241.2358 14.94431459626378
SJ-6D                   
1 29506U 06046B   18114.55792511  .00000189  00000-0  23472-4 0  9998
2 29506  97.8480 120.0662 0001980 165.9746 194.1533 14.93363457626020
AGILE                   
1 31135U 07013A   18114.09063622  .00002523  00000-0  45441-4 0  9991
2 31135   2.4671 206.2924 0012379 162.0910 197.9581 15.30696150611421
AIM                     
1 31304U 07015A   18114.12193948  .00000561  00000-0  36226-4 0  9991
2 31304  97.9989 312.9670 0005919 144.5413 215.6211 15.12625187601933
FGRST (GLAST)           
1 33053U 08029A   18113.93133657  .00000554  00000-0  15086-4 0  9992
2 33053  25.5833  48.7010 0012039 277.2865  82.6302 15.11076414544356
WISE                    
1 36119U 09071A   18114.55747793  .00000889  00000-0  34251-4 0  9993
2 36119  97.4192 146.9988 0001175 324.1593  35.9568 15.28976248463843
SDO                     
1 36395U 10005A   18113.54516149 -.00000061  00000-0  00000+0 0  9998
2 36395  29.1368 134.8903 0000783  33.8211 137.3057  1.00273281 30183
CRYOSAT 2               
1 36508U 10013A   18113.92737677  .00000102  00000-0  24499-4 0  9994
2 36508  92.0258 277.4319 0007953  22.8170 337.3389 14.52179007426270
X-SAT                   
1 37389U 11015C   18114.37281197 -.00000020  00000-0  98694-5 0  9995
2 37389  98.5339 186.0496 0015338  64.4856 295.7914 14.24352429364529
GCOM-W1 (SHIZUKU)       
1 38337U 12025A   18113.95883122  .00000062  00000-0  23835-4 0  9999
2 38337  98.2153  54.9087 0001015 120.5738 281.3675 14.57142822315614
NUSTAR                  
1 38358U 12031A   18113.26899461  .00001007  00000-0  32061-4 0  9997
2 38358   6.0256 218.4229 0011320  80.6644 279.4765 14.87967598318704
RBSP A                  
1 38752U 12046A   18113.17086207  .00000058  00000-0  66768-3 0  9992
2 38752  10.1576  47.5599 6815344  56.1440 350.9497  2.68127483 55218
RBSP B                  
1 38753U 12046B   18113.33787518  .00000059  00000-0  95242-3 0  9994
2 38753  10.0997  59.5673 6836047  32.7182 355.1786  2.65142264 54765
NEOSSAT                 
1 39089U 13009D   18114.13970262  .00000021  00000-0  22965-4 0  9998
2 39089  98.5305 318.9966 0012356  96.9438 263.3153 14.34421556269970
IRIS                    
1 39197U 13033A   18114.14619239  .00000111  00000-0  22385-4 0  9996
2 39197  97.9368 296.0585 0026392 248.4343 111.4055 14.78520032260050
HISAKI (SPRINT-A)       
1 39253U 13049A   18113.70136971  .00000046  00000-0 -22593-4 0  9993
2 39253  29.7191 226.7924 0137333  15.0054 345.4539 13.55188018227341
CASSIOPE                
1 39265U 13055A   18113.93917102  .00004690  00000-0  13350-3 0  9999
2 39265  80.9706  52.9310 0679560  71.9555 295.4427 14.25122355235735
STSAT-3                 
1 39422U 13066G   18114.51482467  .00000088  00000-0  14881-4 0  9990
2 39422  97.6132 171.3467 0021578 283.4593  76.4244 14.89593694240276
SWARM B                 
1 39451U 13067A   18113.92396158  .00000323  00000-0  12872-4 0  9998
2 39451  87.7542 155.0715 0002137  65.6089 294.5379 15.21302377230520
SWARM A                 
1 39452U 13067B   18114.22213504  .00001419  00000-0  31142-4 0  9994
2 39452  87.3488  57.0836 0002771  99.2056 260.9514 15.43047323248081
SWARM C                 
1 39453U 13067C   18114.54631540  .00001362  00000-0  29839-4 0  9991
2 39453  87.3488  58.3914 0002817  99.5173 260.6403 15.43047591248099
BRITE-TORONTO           
1 40020U 14033L   18114.38570399  .00000070  00000-0  20329-4 0  9993
2 40020  97.7937 335.4186 0088796  56.8653 304.1033 14.66484848205702
OCO 2                   
1 40059U 14035A   18113.88093407  .00000035  00000-0  17825-4 0  9999
2 40059  98.2019  56.0203 0001563  92.6411 267.4967 14.57117369202642
BRITE-PL 2              
1 40119U 14049B   18114.47947908  .00000164  00000-0  26054-4 0  9998
2 40119  97.9174 203.4725 0018287 149.4761 210.7522 14.84275897199334
RESURS P2               
1 40360U 14087A   18114.50209373  .00001232  00000-0  41568-4 0  9993
2 40360  97.2664 207.7171 0011341 110.4548  20.3786 15.32546319186052
MMS 1                   
1 40482U 15011A   18114.26498951  .00000057  00000-0  00000+0 0  9996
2 40482  12.8938 311.2397 9074287 164.5345  41.6353  0.35510700  8766
MMS 2                   
1 40483U 15011B   18114.62500000  .00000047  00000-0  00000+0 0  9995
2 40483  12.8989 311.2401 9073267 164.5486  87.6429  0.35510389  8758
MMS 3                   
1 40484U 15011C   18114.26483130  .00000057  00000-0  00000+0 0  9991
2 40484  12.8962 311.2180 9073629 164.5632  41.5911  0.35510682  8750
MMS 4                   
1 40485U 15011D   18114.62500000  .00000048  00000-0  00000+0 0  9998
2 40485  12.8907 311.2280 9073745 164.5681  87.6194  0.35510443  8753
ASTROSAT                
1 40930U 15052A   18111.89507435  .00000640  00000-0  82725-6 0  9992
2 40930   5.9981 195.4017 0008518 293.5200  66.4121 14.76206575138645
DAMPE                   
1 41173U 15078A   18114.57168157  .00000101  00000-0  70762-5 0  9991
2 41173  97.2929 118.8511 0014917 132.8601 341.0320 15.23684376130871
PISAT                   
1 41784U 16059B   18113.88411681  .00000105  00000-0  29593-4 0  9994
2 41784  98.1233 176.6753 0030623 264.6334  95.1374 14.63324576 84012
HXMT (HUIYAN)           
1 42758U 17034A   18114.27164622  .00000439  00000-0  41593-4 0  9998
2 42758  43.0191  21.7094 0007186 141.0880   3.0389 15.08299520 47288
FLYING LAPTOP           
1 42831U 17042G   18114.19369853  .00000212  00000-0  26939-4 0  9999
2 42831  97.6014  18.5882 0014893  25.4727 334.7223 14.90828371 42284
PICSAT                  
1 43132U 18004X   18114.41602695  .00001443  00000-0  65393-4 0  9996
2 43132  97.5389 176.9406 0008413 289.6964  70.3364 15.22491386 15537
ZHANGZHENG-1 (CSES)     
1 43194U 18015C   18113.91968906  .00001017  00000-0  48814-4 0  9996
2 43194  97.3405 243.8233 0018588 349.6264  10.4577 15.20972201 12264
